[{"OBJECT_NAME":"STARLINK-36999","OBJECT_ID":"2026-055G","EPOCH":"2026-03-27T20:00:01.999008","MEAN_MOTION":15.97890093,"ECCENTRICITY":7.97e-5,"INCLINATION":53.1584,"RA_OF_ASC_NODE":246.7787,"ARG_OF_PERICENTER":56.0211,"MEAN_ANOMALY":12.8711,"EPHEMERIS_TYPE":0,"CLASSIFICATION_TYPE":"U","NORAD_CAT_ID":68268,"ELEMENT_SET_NO":999,"REV_AT_EPOCH":255,"BSTAR":-0.0019824,"MEAN_MOTION_DOT":-0.00926206,"MEAN_MOTION_DDOT":0.00028277},{"OBJECT_NAME":"STARLINK-36962","OBJECT_ID":"2026-055H","EPOCH":"2026-03-27T20:00:01.999008","MEAN_MOTION":15.98019104,"ECCENTRICITY":8.09e-5,"INCLINATION":53.1584,"RA_OF_ASC_NODE":246.7727,"ARG_OF_PERICENTER":59.209,"MEAN_ANOMALY":12.5358,"EPHEMERIS_TYPE":0,"CLASSIFICATION_TYPE":"U","NORAD_CAT_ID":68269,"ELEMENT_SET_NO":999,"REV_AT_EPOCH":255,"BSTAR":-0.0019663,"MEAN_MOTION_DOT":-0.00925337,"MEAN_MOTION_DDOT":0.00028268},{"OBJECT_NAME":"STARLINK-37028","OBJECT_ID":"2026-055J","EPOCH":"2026-03-27T20:00:01.999008","MEAN_MOTION":15.98371872,"ECCENTRICITY":7.92e-5,"INCLINATION":53.1584,"RA_OF_ASC_NODE":246.7534,"ARG_OF_PERICENTER":63.8641,"MEAN_ANOMALY":16.9267,"EPHEMERIS_TYPE":0,"CLASSIFICATION_TYPE":"U","NORAD_CAT_ID":68270,"ELEMENT_SET_NO":999,"REV_AT_EPOCH":255,"BSTAR":-0.0020873,"MEAN_MOTION_DOT":-0.01001031,"MEAN_MOTION_DDOT":0.00032704},{"OBJECT_NAME":"STARLINK-37029","OBJECT_ID":"2026-055K","EPOCH":"2026-03-27T20:00:01.999008","MEAN_MOTION":15.9822283,"ECCENTRICITY":8.1e-5,"INCLINATION":53.1583,"RA_OF_ASC_NODE":246.76,"ARG_OF_PERICENTER":61.593,"MEAN_ANOMALY":16.2609,"EPHEMERIS_TYPE":0,"CLASSIFICATION_TYPE":"U","NORAD_CAT_ID":68271,"ELEMENT_SET_NO":999,"REV_AT_EPOCH":255,"BSTAR":-0.0020331,"MEAN_MOTION_DOT":-0.00967265,"MEAN_MOTION_DDOT":0.00030689},{"OBJECT_NAME":"STARLINK-36974","OBJECT_ID":"2026-055L","EPOCH":"2026-03-27T20:00:01.999008","MEAN_MOTION":15.98561084,"ECCENTRICITY":6.79e-5,"INCLINATION":53.1582,"RA_OF_ASC_NODE":246.746,"ARG_OF_PERICENTER":68.0223,"MEAN_ANOMALY":16.4487,"EPHEMERIS_TYPE":0,"CLASSIFICATION_TYPE":"U","NORAD_CAT_ID":68272,"ELEMENT_SET_NO":999,"REV_AT_EPOCH":255,"BSTAR":-0.0022216,"MEAN_MOTION_DOT":-0.01075956,"MEAN_MOTION_DDOT":0.00037346},{"OBJECT_NAME":"STARLINK-37019","OBJECT_ID":"2026-055M","EPOCH":"2026-03-27T20:00:01.999008","MEAN_MOTION":15.98683174,"ECCENTRICITY":8.73e-5,"INCLINATION":53.1582,"RA_OF_ASC_NODE":246.7403,"ARG_OF_PERICENTER":57.4107,"MEAN_ANOMALY":29.5836,"EPHEMERIS_TYPE":0,"CLASSIFICATION_TYPE":"U","NORAD_CAT_ID":68273,"ELEMENT_SET_NO":999,"REV_AT_EPOCH":255,"BSTAR":-0.002237,"MEAN_MOTION_DOT":-0.01090702,"MEAN_MOTION_DDOT":0.00038328},{"OBJECT_NAME":"STARLINK-37129","OBJECT_ID":"2026-055N","EPOCH":"2026-03-27T20:00:01.999008","MEAN_MOTION":15.98826079,"ECCENTRICITY":9.03e-5,"INCLINATION":53.1582,"RA_OF_ASC_NODE":246.7344,"ARG_OF_PERICENTER":60.702,"MEAN_ANOMALY":29.2348,"EPHEMERIS_TYPE":0,"CLASSIFICATION_TYPE":"U","NORAD_CAT_ID":68274,"ELEMENT_SET_NO":999,"REV_AT_EPOCH":255,"BSTAR":-0.0023094,"MEAN_MOTION_DOT":-0.0113463,"MEAN_MOTION_DDOT":0.00041237},{"OBJECT_NAME":"STARLINK-37123","OBJECT_ID":"2026-055P","EPOCH":"2026-03-27T20:00:01.999008","MEAN_MOTION":15.98949728,"ECCENTRICITY":7.78e-5,"INCLINATION":53.1584,"RA_OF_ASC_NODE":246.7295,"ARG_OF_PERICENTER":65.8993,"MEAN_ANOMALY":26.4582,"EPHEMERIS_TYPE":0,"CLASSIFICATION_TYPE":"U","NORAD_CAT_ID":68275,"ELEMENT_SET_NO":999,"REV_AT_EPOCH":255,"BSTAR":-0.0023624,"MEAN_MOTION_DOT":-0.0116834,"MEAN_MOTION_DDOT":0.00043546},{"OBJECT_NAME":"STARLINK-37125","OBJECT_ID":"2026-055Q","EPOCH":"2026-03-27T20:00:01.999008","MEAN_MOTION":15.9909033,"ECCENTRICITY":8.38e-5,"INCLINATION":53.1582,"RA_OF_ASC_NODE":246.7222,"ARG_OF_PERICENTER":62.1778,"MEAN_ANOMALY":33.722,"EPHEMERIS_TYPE":0,"CLASSIFICATION_TYPE":"U","NORAD_CAT_ID":68276,"ELEMENT_SET_NO":999,"REV_AT_EPOCH":255,"BSTAR":-0.0023816,"MEAN_MOTION_DOT":-0.01187013,"MEAN_MOTION_DDOT":0.00044885},{"OBJECT_NAME":"STARLINK-36989","OBJECT_ID":"2026-055R","EPOCH":"2026-03-27T20:00:01.999008","MEAN_MOTION":15.99453288,"ECCENTRICITY":6.66e-5,"INCLINATION":53.1582,"RA_OF_ASC_NODE":246.7038,"ARG_OF_PERICENTER":71.1294,"MEAN_ANOMALY":33.7631,"EPHEMERIS_TYPE":0,"CLASSIFICATION_TYPE":"U","NORAD_CAT_ID":68277,"ELEMENT_SET_NO":999,"REV_AT_EPOCH":255,"BSTAR":-0.0023445,"MEAN_MOTION_DOT":-0.0119274,"MEAN_MOTION_DDOT":0.00045455},{"OBJECT_NAME":"STARLINK-36982","OBJECT_ID":"2026-055S","EPOCH":"2026-03-27T20:00:01.999008","MEAN_MOTION":15.99337226,"ECCENTRICITY":7.35e-5,"INCLINATION":53.1582,"RA_OF_ASC_NODE":246.71,"ARG_OF_PERICENTER":63.2033,"MEAN_ANOMALY":38.9154,"EPHEMERIS_TYPE":0,"CLASSIFICATION_TYPE":"U","NORAD_CAT_ID":68278,"ELEMENT_SET_NO":999,"REV_AT_EPOCH":255,"BSTAR":-0.0023593,"MEAN_MOTION_DOT":-0.01192427,"MEAN_MOTION_DDOT":0.00045377},{"OBJECT_NAME":"STARLINK-36934","OBJECT_ID":"2026-055T","EPOCH":"2026-03-27T20:00:01.999008","MEAN_MOTION":15.99216593,"ECCENTRICITY":9.34e-5,"INCLINATION":53.1582,"RA_OF_ASC_NODE":246.7157,"ARG_OF_PERICENTER":64.4687,"MEAN_ANOMALY":34.8432,"EPHEMERIS_TYPE":0,"CLASSIFICATION_TYPE":"U","NORAD_CAT_ID":68279,"ELEMENT_SET_NO":999,"REV_AT_EPOCH":255,"BSTAR":-0.0023525,"MEAN_MOTION_DOT":-0.01181002,"MEAN_MOTION_DDOT":0.00044533},{"OBJECT_NAME":"STARLINK-37070","OBJECT_ID":"2026-055U","EPOCH":"2026-03-27T20:00:01.999008","MEAN_MOTION":15.99597482,"ECCENTRICITY":7.17e-5,"INCLINATION":53.1583,"RA_OF_ASC_NODE":246.6966,"ARG_OF_PERICENTER":75.6707,"MEAN_ANOMALY":32.6337,"EPHEMERIS_TYPE":0,"CLASSIFICATION_TYPE":"U","NORAD_CAT_ID":68280,"ELEMENT_SET_NO":999,"REV_AT_EPOCH":255,"BSTAR":-0.0023704,"MEAN_MOTION_DOT":-0.01215566,"MEAN_MOTION_DDOT":0.00047122},{"OBJECT_NAME":"STARLINK-37134","OBJECT_ID":"2026-055V","EPOCH":"2026-03-27T20:00:01.999008","MEAN_MOTION":15.99847189,"ECCENTRICITY":8.01e-5,"INCLINATION":53.1579,"RA_OF_ASC_NODE":246.6841,"ARG_OF_PERICENTER":71.137,"MEAN_ANOMALY":43.2452,"EPHEMERIS_TYPE":0,"CLASSIFICATION_TYPE":"U","NORAD_CAT_ID":68281,"ELEMENT_SET_NO":999,"REV_AT_EPOCH":255,"BSTAR":-0.002338,"MEAN_MOTION_DOT":-0.0121617,"MEAN_MOTION_DDOT":0.00047291},{"OBJECT_NAME":"STARLINK-37160","OBJECT_ID":"2026-055W","EPOCH":"2026-03-27T20:00:01.999008","MEAN_MOTION":15.99716621,"ECCENTRICITY":7.31e-5,"INCLINATION":53.1582,"RA_OF_ASC_NODE":246.6907,"ARG_OF_PERICENTER":63.2518,"MEAN_ANOMALY":48.242,"EPHEMERIS_TYPE":0,"CLASSIFICATION_TYPE":"U","NORAD_CAT_ID":68282,"ELEMENT_SET_NO":999,"REV_AT_EPOCH":255,"BSTAR":-0.0023203,"MEAN_MOTION_DOT":-0.01198171,"MEAN_MOTION_DDOT":0.00045962},{"OBJECT_NAME":"STARLINK-37124","OBJECT_ID":"2026-055X","EPOCH":"2026-03-27T20:00:01.999008","MEAN_MOTION":15.99953344,"ECCENTRICITY":7.22e-5,"INCLINATION":53.1581,"RA_OF_ASC_NODE":246.6793,"ARG_OF_PERICENTER":74.9213,"MEAN_ANOMALY":41.9669,"EPHEMERIS_TYPE":0,"CLASSIFICATION_TYPE":"U","NORAD_CAT_ID":68283,"ELEMENT_SET_NO":999,"REV_AT_EPOCH":255,"BSTAR":-0.0023034,"MEAN_MOTION_DOT":-0.0120554,"MEAN_MOTION_DDOT":0.00046596}]
