STARLINK-36999          
1 68268U 26055G   26086.83335647 -.00926206  28277-3 -19824-2 0  9991
2 68268  53.1584 246.7787 0000797  56.0211  12.8711 15.97890093  2550
STARLINK-36962          
1 68269U 26055H   26086.83335647 -.00925337  28268-3 -19663-2 0  9997
2 68269  53.1584 246.7727 0000809  59.2090  12.5358 15.98019104  2550
STARLINK-37028          
1 68270U 26055J   26086.83335647 -.01001031  32704-3 -20873-2 0  9991
2 68270  53.1584 246.7534 0000792  63.8641  16.9267 15.98371872  2552
STARLINK-37029          
1 68271U 26055K   26086.83335647 -.00967265  30689-3 -20331-2 0  9990
2 68271  53.1583 246.7600 0000810  61.5930  16.2609 15.98222830  2555
STARLINK-36974          
1 68272U 26055L   26086.83335647 -.01075956  37346-3 -22216-2 0  9990
2 68272  53.1582 246.7460 0000679  68.0223  16.4487 15.98561084  2552
STARLINK-37019          
1 68273U 26055M   26086.83335647 -.01090702  38328-3 -22370-2 0  9999
2 68273  53.1582 246.7403 0000873  57.4107  29.5836 15.98683174  2557
STARLINK-37129          
1 68274U 26055N   26086.83335647 -.01134630  41237-3 -23094-2 0  9996
2 68274  53.1582 246.7344 0000903  60.7020  29.2348 15.98826079  2555
STARLINK-37123          
1 68275U 26055P   26086.83335647 -.01168340  43546-3 -23624-2 0  9996
2 68275  53.1584 246.7295 0000778  65.8993  26.4582 15.98949728  2554
STARLINK-37125          
1 68276U 26055Q   26086.83335647 -.01187013  44885-3 -23816-2 0  9995
2 68276  53.1582 246.7222 0000838  62.1778  33.7220 15.99090330  2558
STARLINK-36989          
1 68277U 26055R   26086.83335647 -.01192740  45455-3 -23445-2 0  9991
2 68277  53.1582 246.7038 0000666  71.1294  33.7631 15.99453288  2557
STARLINK-36982          
1 68278U 26055S   26086.83335647 -.01192427  45377-3 -23593-2 0  9991
2 68278  53.1582 246.7100 0000735  63.2033  38.9154 15.99337226  2558
STARLINK-36934          
1 68279U 26055T   26086.83335647 -.01181002  44533-3 -23525-2 0  9997
2 68279  53.1582 246.7157 0000934  64.4687  34.8432 15.99216593  2557
STARLINK-37070          
1 68280U 26055U   26086.83335647 -.01215566  47122-3 -23704-2 0  9998
2 68280  53.1583 246.6966 0000717  75.6707  32.6337 15.99597482  2552
STARLINK-37134          
1 68281U 26055V   26086.83335647 -.01216170  47291-3 -23380-2 0  9998
2 68281  53.1579 246.6841 0000801  71.1370  43.2452 15.99847189  2559
STARLINK-37160          
1 68282U 26055W   26086.83335647 -.01198171  45962-3 -23203-2 0  9996
2 68282  53.1582 246.6907 0000731  63.2518  48.2420 15.99716621  2551
STARLINK-37124          
1 68283U 26055X   26086.83335647 -.01205540  46596-3 -23034-2 0  9992
2 68283  53.1581 246.6793 0000722  74.9213  41.9669 15.99953344  2555
